STARLINK-1406_new
1 15687C 20035AG  21326.12847426  .00008019  00000-0  54921-3 0  3264
2 15687  53.0001 248.1726 0002158  62.8405  25.2107 15.05574494    14
STARLINK-1406_old
1 25687C 20035AG  21325.11081125  .00003993  00000-0  27359-3 0  3258
2 25687  53.0004 252.7406 0002061  62.5639 266.6176 15.05566786    14
